QIANFAN-17              
1 60395U 24140S   25231.78523456  .00000105  00000+0  14438-3 0  9995
2 60395  88.9844 311.3135 0015746 170.3939 189.7516 13.50964926 51769
QIANFAN-18              
1 60396U 24140T   25231.76476051  .00000107  00000+0  14685-3 0  9998
2 60396  88.9836 310.8582 0015649 154.1132 206.0805 13.50966753 51997
QIANFAN-19              
1 61552U 24185A   25231.60658666  .00000373  00000+0  18847-3 0  9998
2 61552  88.9780  91.1530 0005973 332.8771  27.2102 14.14127645 53394
QIANFAN-20              
1 61553U 24185B   25231.62019457  .00000425  00000+0  23871-3 0  9991
2 61553  88.9778  91.3592 0006425  10.9394 349.1929 14.08679194 53285
QIANFAN-21              
1 61554U 24185C   25231.59701540  .00000507  00000+0  22123-3 0  9999
2 61554  88.9694  90.4846 0011908  28.1078 332.0754 14.22380226 53601
QIANFAN-22              
1 61555U 24185D   25231.58994249  .00000144  00000+0  11300-3 0  9991
2 61555  88.9765  91.8803 0006911   4.8252 355.2984 13.86242999 52987
QIANFAN-23              
1 61556U 24185E   25231.60231834  .00000410  00000+0  20032-3 0  9997
2 61556  88.9772  91.0164 0007244 344.5402  15.5563 14.16101002 53454
QIANFAN-24              
1 61557U 24185F   25231.62669045  .00000478  00000+0  20385-3 0  9994
2 61557  88.9753  90.6071 0008354 326.8986  33.1682 14.23580227 53646
